[{"OBJECT_NAME":"STARLINK-5147","OBJECT_ID":"2022-125X","EPOCH":"2026-03-09T17:15:08.735904","MEAN_MOTION":15.08860135,"ECCENTRICITY":0.00011902,"INCLINATION":53.2178,"RA_OF_ASC_NODE":214.2234,"ARG_OF_PERICENTER":82.7716,"MEAN_ANOMALY":277.3411,"EPHEMERIS_TYPE":0,"CLASSIFICATION_TYPE":"U","NORAD_CAT_ID":53985,"ELEMENT_SET_NO":999,"REV_AT_EPOCH":18946,"BSTAR":0.00018785314,"MEAN_MOTION_DOT":2.705e-5,"MEAN_MOTION_DDOT":0},{"OBJECT_NAME":"CZ-6A DEB","OBJECT_ID":"2022-151KK","EPOCH":"2026-03-09T15:42:53.993376","MEAN_MOTION":15.13886585,"ECCENTRICITY":0.0019766,"INCLINATION":98.5478,"RA_OF_ASC_NODE":140.8365,"ARG_OF_PERICENTER":144.334,"MEAN_ANOMALY":215.9214,"EPHEMERIS_TYPE":0,"CLASSIFICATION_TYPE":"U","NORAD_CAT_ID":54531,"ELEMENT_SET_NO":999,"REV_AT_EPOCH":8393,"BSTAR":0.0066445138,"MEAN_MOTION_DOT":0.00122683,"MEAN_MOTION_DDOT":0}]
